HELIOS 1B               
1 25977U 99064A   26097.56678892  .00001477  00000+0  16801-3 0  9990
2 25977  98.1659   0.6555 0001297  40.8372 319.2940 14.87819696689554
TERRA                   
1 25994U 99068A   26097.63342321  .00000469  00000+0  10467-3 0  9998
2 25994  97.9534 149.9536 0003657  92.4618  59.0048 14.61047720399308
SL-16 R/B               
1 26070U 00006B   26097.20233486 -.00000040  00000+0  39753-5 0  9999
2 26070  71.0044  37.8813 0015055 145.0489 215.1625 14.15831507352591
TITAN 4B R/B            
1 26474U 00047B   26097.58240128  .00003024  00000+0  19131-3 0  9994
2 26474  67.9893 319.2513 0040755   1.8422 358.2870 15.09831873397275
ENVISAT                 
1 27386U 02009A   26097.47695553  .00000153  00000+0  63511-4 0  9993
2 27386  98.3774  50.3975 0001161  82.5779  28.2579 14.39047726263313
IDEFIX & ARIANE 42P R/B 
1 27422U 02021B   26097.58235739  .00000327  00000+0  14068-3 0  9991
2 27422  98.5900  35.8492 0012923 100.9907 259.2731 14.31047219248155
AQUA                    
1 27424U 02022A   26097.56661264  .00001098  00000+0  22868-3 0  9991
2 27424  98.4223  65.4685 0001511 113.3779 311.1197 14.62047812272955
CZ-4B R/B               
1 27432U 02024C   26097.59849166  .00000030  00000+0  38715-4 0  9998
2 27432  98.8779 150.8513 0049170 301.5212 223.0299 14.14553121233323
MIDORI II (ADEOS-II)    
1 27597U 02056A   26097.50542790  .00000362  00000+0  15989-3 0  9994
2 27597  98.7818  56.1915 0000238  29.2973 330.8222 14.29308645214419
H-2A R/B                
1 27601U 02056E   26097.46895983  .00000383  00000+0  14841-3 0  9999
2 27601  98.3252  56.7479 0071402  76.0644  34.6616 14.33782485218233
CZ-4B R/B               
1 28059U 03049C   26097.47210733  .00000395  00000+0  10204-3 0  9997
2 28059  98.6900  93.5116 0048833 142.7898 217.6698 14.55047583190784
CZ-2C R/B               
1 28222U 04012C   26097.16700958  .00075654  00000+0  66986-3 0  9997
2 28222  97.7161 165.2259 0013774 199.6359 160.4373 15.68260743208739
SL-16 R/B               
1 28353U 04021B   26097.59061607  .00000317  00000+0  18974-3 0  9998
2 28353  71.0012 171.8440 0005643 332.8838  27.1989 14.14602430126923
CZ-4B R/B               
1 28415U 04035C   26097.63326080  .00007899  00000+0  27415-3 0  9998
2 28415  97.3447 131.5315 0030541 223.3415 136.5423 15.29603060184333
CZ-2C R/B               
1 28480U 04046B   26097.51440978  .00000209  00000+0  92319-4 0  9996
2 28480  98.1973  10.7021 0140550  69.8028 291.8207 14.27004236112619
ARIANE 5 R/B            
1 28499U 04049H   26097.46585112  .00001093  00000+0  12681-3 0  9998
2 28499  98.2668 267.0088 0082832 257.6435 101.5498 14.85325457150063
CZ-2D R/B               
1 28738U 05024B   26097.03479292  .00050295  00000+0  55451-3 0  9992
2 28738  97.3567 113.2737 0001954 254.2765 105.8278 15.62959546144205
