[{"OBJECT_NAME":"HELIOS 1B","OBJECT_ID":"1999-064A","EPOCH":"2026-04-07T13:36:10.562688","MEAN_MOTION":14.87819696,"ECCENTRICITY":0.00012979,"INCLINATION":98.1659,"RA_OF_ASC_NODE":0.6555,"ARG_OF_PERICENTER":40.8372,"MEAN_ANOMALY":319.294,"EPHEMERIS_TYPE":0,"CLASSIFICATION_TYPE":"U","NORAD_CAT_ID":25977,"ELEMENT_SET_NO":999,"REV_AT_EPOCH":68955,"BSTAR":0.00016801402,"MEAN_MOTION_DOT":1.477e-5,"MEAN_MOTION_DDOT":0},{"OBJECT_NAME":"TERRA","OBJECT_ID":"1999-068A","EPOCH":"2026-04-07T15:12:07.765344","MEAN_MOTION":14.6104772,"ECCENTRICITY":0.00036574,"INCLINATION":97.9534,"RA_OF_ASC_NODE":149.9536,"ARG_OF_PERICENTER":92.4618,"MEAN_ANOMALY":59.0048,"EPHEMERIS_TYPE":0,"CLASSIFICATION_TYPE":"U","NORAD_CAT_ID":25994,"ELEMENT_SET_NO":999,"REV_AT_EPOCH":39930,"BSTAR":0.0001046694,"MEAN_MOTION_DOT":4.69e-6,"MEAN_MOTION_DDOT":0},{"OBJECT_NAME":"SL-16 R/B","OBJECT_ID":"2000-006B","EPOCH":"2026-04-07T04:51:21.731904","MEAN_MOTION":14.15831507,"ECCENTRICITY":0.00150557,"INCLINATION":71.0044,"RA_OF_ASC_NODE":37.8813,"ARG_OF_PERICENTER":145.0489,"MEAN_ANOMALY":215.1625,"EPHEMERIS_TYPE":0,"CLASSIFICATION_TYPE":"U","NORAD_CAT_ID":26070,"ELEMENT_SET_NO":999,"REV_AT_EPOCH":35259,"BSTAR":3.975275e-6,"MEAN_MOTION_DOT":-4.0e-7,"MEAN_MOTION_DDOT":0},{"OBJECT_NAME":"TITAN 4B R/B","OBJECT_ID":"2000-047B","EPOCH":"2026-04-07T13:58:39.470592","MEAN_MOTION":15.09831873,"ECCENTRICITY":0.00407555,"INCLINATION":67.9893,"RA_OF_ASC_NODE":319.2513,"ARG_OF_PERICENTER":1.8422,"MEAN_ANOMALY":358.287,"EPHEMERIS_TYPE":0,"CLASSIFICATION_TYPE":"U","NORAD_CAT_ID":26474,"ELEMENT_SET_NO":999,"REV_AT_EPOCH":39727,"BSTAR":0.00019130949,"MEAN_MOTION_DOT":3.024e-5,"MEAN_MOTION_DDOT":0},{"OBJECT_NAME":"ENVISAT","OBJECT_ID":"2002-009A","EPOCH":"2026-04-07T11:26:48.957792","MEAN_MOTION":14.39047726,"ECCENTRICITY":0.00011617,"INCLINATION":98.3774,"RA_OF_ASC_NODE":50.3975,"ARG_OF_PERICENTER":82.5779,"MEAN_ANOMALY":28.2579,"EPHEMERIS_TYPE":0,"CLASSIFICATION_TYPE":"U","NORAD_CAT_ID":27386,"ELEMENT_SET_NO":999,"REV_AT_EPOCH":26331,"BSTAR":6.3511399e-5,"MEAN_MOTION_DOT":1.53e-6,"MEAN_MOTION_DDOT":0},{"OBJECT_NAME":"IDEFIX & ARIANE 42P R/B","OBJECT_ID":"2002-021B","EPOCH":"2026-04-07T13:58:35.678496","MEAN_MOTION":14.31047219,"ECCENTRICITY":0.00129232,"INCLINATION":98.59,"RA_OF_ASC_NODE":35.8492,"ARG_OF_PERICENTER":100.9907,"MEAN_ANOMALY":259.2731,"EPHEMERIS_TYPE":0,"CLASSIFICATION_TYPE":"U","NORAD_CAT_ID":27422,"ELEMENT_SET_NO":999,"REV_AT_EPOCH":24815,"BSTAR":0.00014067771,"MEAN_MOTION_DOT":3.27e-6,"MEAN_MOTION_DDOT":0},{"OBJECT_NAME":"AQUA","OBJECT_ID":"2002-022A","EPOCH":"2026-04-07T13:35:55.332096","MEAN_MOTION":14.62047812,"ECCENTRICITY":0.00015114,"INCLINATION":98.4223,"RA_OF_ASC_NODE":65.4685,"ARG_OF_PERICENTER":113.3779,"MEAN_ANOMALY":311.1197,"EPHEMERIS_TYPE":0,"CLASSIFICATION_TYPE":"U","NORAD_CAT_ID":27424,"ELEMENT_SET_NO":999,"REV_AT_EPOCH":27295,"BSTAR":0.00022867918,"MEAN_MOTION_DOT":1.098e-5,"MEAN_MOTION_DDOT":0},{"OBJECT_NAME":"CZ-4B R/B","OBJECT_ID":"2002-024C","EPOCH":"2026-04-07T14:21:49.679424","MEAN_MOTION":14.14553121,"ECCENTRICITY":0.00491707,"INCLINATION":98.8779,"RA_OF_ASC_NODE":150.8513,"ARG_OF_PERICENTER":301.5212,"MEAN_ANOMALY":223.0299,"EPHEMERIS_TYPE":0,"CLASSIFICATION_TYPE":"U","NORAD_CAT_ID":27432,"ELEMENT_SET_NO":999,"REV_AT_EPOCH":23332,"BSTAR":3.8714588e-5,"MEAN_MOTION_DOT":3.0e-7,"MEAN_MOTION_DDOT":0},{"OBJECT_NAME":"MIDORI II (ADEOS-II)","OBJECT_ID":"2002-056A","EPOCH":"2026-04-07T12:07:48.970560","MEAN_MOTION":14.29308645,"ECCENTRICITY":2.381e-5,"INCLINATION":98.7818,"RA_OF_ASC_NODE":56.1915,"ARG_OF_PERICENTER":29.2973,"MEAN_ANOMALY":330.8222,"EPHEMERIS_TYPE":0,"CLASSIFICATION_TYPE":"U","NORAD_CAT_ID":27597,"ELEMENT_SET_NO":999,"REV_AT_EPOCH":21441,"BSTAR":0.00015988648,"MEAN_MOTION_DOT":3.62e-6,"MEAN_MOTION_DDOT":0},{"OBJECT_NAME":"H-2A R/B","OBJECT_ID":"2002-056E","EPOCH":"2026-04-07T11:15:18.129312","MEAN_MOTION":14.33782485,"ECCENTRICITY":0.00714027,"INCLINATION":98.3252,"RA_OF_ASC_NODE":56.7479,"ARG_OF_PERICENTER":76.0644,"MEAN_ANOMALY":34.6616,"EPHEMERIS_TYPE":0,"CLASSIFICATION_TYPE":"U","NORAD_CAT_ID":27601,"ELEMENT_SET_NO":999,"REV_AT_EPOCH":21823,"BSTAR":0.00014840669,"MEAN_MOTION_DOT":3.83e-6,"MEAN_MOTION_DDOT":0},{"OBJECT_NAME":"CZ-4B R/B","OBJECT_ID":"2003-049C","EPOCH":"2026-04-07T11:19:50.073312","MEAN_MOTION":14.55047583,"ECCENTRICITY":0.00488331,"INCLINATION":98.69,"RA_OF_ASC_NODE":93.5116,"ARG_OF_PERICENTER":142.7898,"MEAN_ANOMALY":217.6698,"EPHEMERIS_TYPE":0,"CLASSIFICATION_TYPE":"U","NORAD_CAT_ID":28059,"ELEMENT_SET_NO":999,"REV_AT_EPOCH":19078,"BSTAR":0.00010203581,"MEAN_MOTION_DOT":3.95e-6,"MEAN_MOTION_DDOT":0},{"OBJECT_NAME":"CZ-2C R/B","OBJECT_ID":"2004-012C","EPOCH":"2026-04-07T04:00:29.627712","MEAN_MOTION":15.68260743,"ECCENTRICITY":0.00137748,"INCLINATION":97.7161,"RA_OF_ASC_NODE":165.2259,"ARG_OF_PERICENTER":199.6359,"MEAN_ANOMALY":160.4373,"EPHEMERIS_TYPE":0,"CLASSIFICATION_TYPE":"U","NORAD_CAT_ID":28222,"ELEMENT_SET_NO":999,"REV_AT_EPOCH":20873,"BSTAR":0.00066985943,"MEAN_MOTION_DOT":0.00075654,"MEAN_MOTION_DDOT":0},{"OBJECT_NAME":"SL-16 R/B","OBJECT_ID":"2004-021B","EPOCH":"2026-04-07T14:10:29.228448","MEAN_MOTION":14.1460243,"ECCENTRICITY":0.00056431,"INCLINATION":71.0012,"RA_OF_ASC_NODE":171.844,"ARG_OF_PERICENTER":332.8838,"MEAN_ANOMALY":27.1989,"EPHEMERIS_TYPE":0,"CLASSIFICATION_TYPE":"U","NORAD_CAT_ID":28353,"ELEMENT_SET_NO":999,"REV_AT_EPOCH":12692,"BSTAR":0.00018973864,"MEAN_MOTION_DOT":3.17e-6,"MEAN_MOTION_DDOT":0},{"OBJECT_NAME":"CZ-4B R/B","OBJECT_ID":"2004-035C","EPOCH":"2026-04-07T15:11:53.733120","MEAN_MOTION":15.2960306,"ECCENTRICITY":0.00305417,"INCLINATION":97.3447,"RA_OF_ASC_NODE":131.5315,"ARG_OF_PERICENTER":223.3415,"MEAN_ANOMALY":136.5423,"EPHEMERIS_TYPE":0,"CLASSIFICATION_TYPE":"U","NORAD_CAT_ID":28415,"ELEMENT_SET_NO":999,"REV_AT_EPOCH":18433,"BSTAR":0.00027415229,"MEAN_MOTION_DOT":7.899e-5,"MEAN_MOTION_DDOT":0},{"OBJECT_NAME":"CZ-2C R/B","OBJECT_ID":"2004-046B","EPOCH":"2026-04-07T12:20:45.004992","MEAN_MOTION":14.27004236,"ECCENTRICITY":0.01405506,"INCLINATION":98.1973,"RA_OF_ASC_NODE":10.7021,"ARG_OF_PERICENTER":69.8028,"MEAN_ANOMALY":291.8207,"EPHEMERIS_TYPE":0,"CLASSIFICATION_TYPE":"U","NORAD_CAT_ID":28480,"ELEMENT_SET_NO":999,"REV_AT_EPOCH":11261,"BSTAR":9.2319196e-5,"MEAN_MOTION_DOT":2.09e-6,"MEAN_MOTION_DDOT":0},{"OBJECT_NAME":"ARIANE 5 R/B","OBJECT_ID":"2004-049H","EPOCH":"2026-04-07T11:10:49.536768","MEAN_MOTION":14.85325457,"ECCENTRICITY":0.00828322,"INCLINATION":98.2668,"RA_OF_ASC_NODE":267.0088,"ARG_OF_PERICENTER":257.6435,"MEAN_ANOMALY":101.5498,"EPHEMERIS_TYPE":0,"CLASSIFICATION_TYPE":"U","NORAD_CAT_ID":28499,"ELEMENT_SET_NO":999,"REV_AT_EPOCH":15006,"BSTAR":0.00012681143,"MEAN_MOTION_DOT":1.093e-5,"MEAN_MOTION_DDOT":0},{"OBJECT_NAME":"CZ-2D R/B","OBJECT_ID":"2005-024B","EPOCH":"2026-04-07T00:50:06.108288","MEAN_MOTION":15.62959546,"ECCENTRICITY":0.00019546,"INCLINATION":97.3567,"RA_OF_ASC_NODE":113.2737,"ARG_OF_PERICENTER":254.2765,"MEAN_ANOMALY":105.8278,"EPHEMERIS_TYPE":0,"CLASSIFICATION_TYPE":"U","NORAD_CAT_ID":28738,"ELEMENT_SET_NO":999,"REV_AT_EPOCH":14420,"BSTAR":0.00055450824,"MEAN_MOTION_DOT":0.00050295,"MEAN_MOTION_DDOT":0}]
